{
  "norad_id": 13086,
  "name": "OPS 8701 (DSP 10)",
  "history": [
    {
      "epoch": "2026-03-28T12:40:17.467680Z",
      "apogee_km": 36402.40125087622,
      "perigee_km": 36359.753210602474,
      "latitude_deg": -3.019859210727483,
      "longitude_deg": -84.75504079295854,
      "height_km": 36360.45730375226,
      "semi_major_axis_km": 42759.214230739344,
      "eccentricity": 0.0004987,
      "inclination_deg": 9.4537,
      "raan_deg": 309.8045,
      "arg_perigee_deg": 327.1892,
      "mean_anomaly_deg": 13.9776,
      "mean_motion_rev_day": 0.98187949
    },
    {
      "epoch": "2026-03-29T02:20:21.537600Z",
      "apogee_km": 36402.29169139589,
      "perigee_km": 36359.88309264388,
      "latitude_deg": -0.4188244621490862,
      "longitude_deg": -89.33771836820816,
      "height_km": 36397.93172886629,
      "semi_major_axis_km": 42759.22439201989,
      "eccentricity": 0.0004959,
      "inclination_deg": 9.4525,
      "raan_deg": 309.8009,
      "arg_perigee_deg": 327.347,
      "mean_anomaly_deg": 215.1284,
      "mean_motion_rev_day": 0.98187914
    },
    {
      "epoch": "2026-03-30T03:28:38.592768Z",
      "apogee_km": 36401.92379873476,
      "perigee_km": 36360.20279182265,
      "latitude_deg": -2.084549724347289,
      "longitude_deg": -97.33671449384869,
      "height_km": 36395.5469544496,
      "semi_major_axis_km": 42759.20029527871,
      "eccentricity": 0.00048786,
      "inclination_deg": 9.4502,
      "raan_deg": 309.7941,
      "arg_perigee_deg": 327.6525,
      "mean_anomaly_deg": 225.0738,
      "mean_motion_rev_day": 0.98187997
    },
    {
      "epoch": "2026-03-30T14:13:33.758112Z",
      "apogee_km": 36401.70520834146,
      "perigee_km": 36360.36564044155,
      "latitude_deg": -1.4404431782559948,
      "longitude_deg": -100.35787460364664,
      "height_km": 36361.86781451995,
      "semi_major_axis_km": 42759.17242439151,
      "eccentricity": 0.0004834,
      "inclination_deg": 9.4493,
      "raan_deg": 309.791,
      "arg_perigee_deg": 327.844,
      "mean_anomaly_deg": 23.1964,
      "mean_motion_rev_day": 0.98188093
    },
    {
      "epoch": "2026-03-31T15:29:05.292096Z",
      "apogee_km": 36401.242694810986,
      "perigee_km": 36360.6899612147,
      "latitude_deg": 0.5302844598205159,
      "longitude_deg": -108.40824745952433,
      "height_km": 36363.92557839192,
      "semi_major_axis_km": 42759.10332801285,
      "eccentricity": 0.0004742,
      "inclination_deg": 9.4472,
      "raan_deg": 309.7838,
      "arg_perigee_deg": 328.03,
      "mean_anomaly_deg": 35.0399,
      "mean_motion_rev_day": 0.98188331
    },
    {
      "epoch": "2026-04-01T15:46:51.072384Z",
      "apogee_km": 36400.783554190966,
      "perigee_km": 36360.974910078854,
      "latitude_deg": 0.1788962718718425,
      "longitude_deg": -115.97964379413865,
      "height_km": 36363.760054622406,
      "semi_major_axis_km": 42759.01623213491,
      "eccentricity": 0.0004655,
      "inclination_deg": 9.4452,
      "raan_deg": 309.7767,
      "arg_perigee_deg": 328.1164,
      "mean_anomaly_deg": 32.8047,
      "mean_motion_rev_day": 0.98188631
    },
    {
      "epoch": "2026-04-02T14:16:09.667776Z",
      "apogee_km": 36400.332628351265,
      "perigee_km": 36361.24583870268,
      "latitude_deg": -4.372338744402071,
      "longitude_deg": -122.70264144719904,
      "height_km": 36361.62366338377,
      "semi_major_axis_km": 42758.926233526974,
      "eccentricity": 0.00045706,
      "inclination_deg": 9.4434,
      "raan_deg": 309.77,
      "arg_perigee_deg": 328.0833,
      "mean_anomaly_deg": 4.0669,
      "mean_motion_rev_day": 0.98188941
    },
    {
      "epoch": "2026-04-03T15:37:43.627296Z",
      "apogee_km": 36399.775791025946,
      "perigee_km": 36361.57506800142,
      "latitude_deg": -2.30186334043259,
      "longitude_deg": -130.75601306772555,
      "height_km": 36362.452584451654,
      "semi_major_axis_km": 42758.81242951369,
      "eccentricity": 0.0004467,
      "inclination_deg": 9.4414,
      "raan_deg": 309.7624,
      "arg_perigee_deg": 327.9291,
      "mean_anomaly_deg": 17.7371,
      "mean_motion_rev_day": 0.98189333
    },
    {
      "epoch": "2026-04-04T05:17:52.510560Z",
      "apogee_km": 36399.44735371969,
      "perigee_km": 36361.775186143954,
      "latitude_deg": -1.1633238820360068,
      "longitude_deg": -135.34979566568887,
      "height_km": 36394.779877139576,
      "semi_major_axis_km": 42758.74826993183,
      "eccentricity": 0.00044052,
      "inclination_deg": 9.4404,
      "raan_deg": 309.7582,
      "arg_perigee_deg": 327.7172,
      "mean_anomaly_deg": 219.2804,
      "mean_motion_rev_day": 0.98189554
    },
    {
      "epoch": "2026-04-05T05:13:14.251584Z",
      "apogee_km": 36398.9047688034,
      "perigee_km": 36362.08958477718,
      "latitude_deg": 0.08745804734741136,
      "longitude_deg": -142.71911953615844,
      "height_km": 36395.51510337329,
      "semi_major_axis_km": 42758.63417679029,
      "eccentricity": 0.0004305,
      "inclination_deg": 9.4386,
      "raan_deg": 309.751,
      "arg_perigee_deg": 327.2958,
      "mean_anomaly_deg": 212.0586,
      "mean_motion_rev_day": 0.98189947
    },
    {
      "epoch": "2026-04-05T17:11:03.173280Z",
      "apogee_km": 36398.71665502032,
      "perigee_km": 36362.17260564415,
      "latitude_deg": -0.7016714107851268,
      "longitude_deg": -146.36410270924162,
      "height_km": 36364.08409076137,
      "semi_major_axis_km": 42758.581630332235,
      "eccentricity": 0.00042733,
      "inclination_deg": 9.4377,
      "raan_deg": 309.7474,
      "arg_perigee_deg": 327.2052,
      "mean_anomaly_deg": 28.3614,
      "mean_motion_rev_day": 0.98190128
    },
    {
      "epoch": "2026-04-07T09:29:53.327040Z",
      "apogee_km": 36398.002888402254,
      "perigee_km": 36362.533935944746,
      "latitude_deg": -7.154009124508009,
      "longitude_deg": -159.46570654253242,
      "height_km": 36383.15545261827,
      "semi_major_axis_km": 42758.4054121735,
      "eccentricity": 0.00041476,
      "inclination_deg": 9.4346,
      "raan_deg": 309.7352,
      "arg_perigee_deg": 326.3218,
      "mean_anomaly_deg": 263.0319,
      "mean_motion_rev_day": 0.98190735
    },
    {
      "epoch": "2026-04-07T18:44:18.826944Z",
      "apogee_km": 36397.934088468435,
      "perigee_km": 36362.53015883406,
      "latitude_deg": 0.9161204566600394,
      "longitude_deg": -161.96963130377742,
      "height_km": 36366.0198737174,
      "semi_major_axis_km": 42758.36912365125,
      "eccentricity": 0.000414,
      "inclination_deg": 9.4339,
      "raan_deg": 309.7325,
      "arg_perigee_deg": 326.2081,
      "mean_anomaly_deg": 39.2489,
      "mean_motion_rev_day": 0.9819086
    },
    {
      "epoch": "2026-04-08T06:41:57.204384Z",
      "apogee_km": 36397.76042621621,
      "perigee_km": 36362.60453593887,
      "latitude_deg": -0.2806403782602121,
      "longitude_deg": -165.70340579076066,
      "height_km": 36393.93862730792,
      "semi_major_axis_km": 42758.319481077546,
      "eccentricity": 0.0004111,
      "inclination_deg": 9.4329,
      "raan_deg": 309.729,
      "arg_perigee_deg": 325.9084,
      "mean_anomaly_deg": 215.7189,
      "mean_motion_rev_day": 0.98191031
    },
    {
      "epoch": "2026-04-09T13:14:28.317696Z",
      "apogee_km": 36397.467978481654,
      "perigee_km": 36362.71409073513,
      "latitude_deg": -9.428826921988422,
      "longitude_deg": -175.20705978287327,
      "height_km": 36371.109148718366,
      "semi_major_axis_km": 42758.22803460839,
      "eccentricity": 0.0004064,
      "inclination_deg": 9.4306,
      "raan_deg": 309.7199,
      "arg_perigee_deg": 325.1188,
      "mean_anomaly_deg": 306.3674,
      "mean_motion_rev_day": 0.98191346
    },
    {
      "epoch": "2026-04-10T08:15:15.632352Z",
      "apogee_km": 36397.388385417995,
      "perigee_km": 36362.69439947037,
      "latitude_deg": -1.8891362701858254,
      "longitude_deg": 178.69166960947396,
      "height_km": 36391.64300823819,
      "semi_major_axis_km": 42758.178392444184,
      "eccentricity": 0.0004057,
      "inclination_deg": 9.4291,
      "raan_deg": 309.7144,
      "arg_perigee_deg": 324.738,
      "mean_anomaly_deg": 226.7972,
      "mean_motion_rev_day": 0.98191517
    },
    {
      "epoch": "2026-04-11T08:10:37.310304Z",
      "apogee_km": 36397.33215569263,
      "perigee_km": 36362.6809561549,
      "latitude_deg": -0.6509118684672468,
      "longitude_deg": 171.32854490113746,
      "height_km": 36392.88345257172,
      "semi_major_axis_km": 42758.143555923765,
      "eccentricity": 0.0004052,
      "inclination_deg": 9.4272,
      "raan_deg": 309.7074,
      "arg_perigee_deg": 324.2314,
      "mean_anomaly_deg": 219.6671,
      "mean_motion_rev_day": 0.98191637
    },
    {
      "epoch": "2026-04-12T21:46:07.205376Z",
      "apogee_km": 36397.440163885054,
      "perigee_km": 36362.60081716178,
      "latitude_deg": 2.8604843868214056,
      "longitude_deg": 159.4860191485736,
      "height_km": 36369.10441592041,
      "semi_major_axis_km": 42758.157490523416,
      "eccentricity": 0.0004074,
      "inclination_deg": 9.4242,
      "raan_deg": 309.6965,
      "arg_perigee_deg": 323.4388,
      "mean_anomaly_deg": 54.1567,
      "mean_motion_rev_day": 0.98191589
    },
    {
      "epoch": "2026-04-14T09:21:51.774912Z",
      "apogee_km": 36397.73110269616,
      "perigee_km": 36362.46838485357,
      "latitude_deg": -0.32676023705667023,
      "longitude_deg": 148.51050837881934,
      "height_km": 36393.33276444782,
      "semi_major_axis_km": 42758.23674377487,
      "eccentricity": 0.00041235,
      "inclination_deg": 9.4212,
      "raan_deg": 309.6867,
      "arg_perigee_deg": 323.1636,
      "mean_anomaly_deg": 218.729,
      "mean_motion_rev_day": 0.98191316
    }
  ]
}